[
    {
        "OBJECT_NAME": "STARLINK-5257",
        "OBJECT_ID": "2023-010AZ",
        "EPOCH": "2023-09-14T01:51:35.479008",
        "MEAN_MOTION": 14.98339462,
        "ECCENTRICITY": 0.0003005,
        "INCLINATION": 69.999,
        "RA_OF_ASC_NODE": 132.7668,
        "ARG_OF_PERICENTER": 267.5737,
        "MEAN_ANOMALY": 92.5078,
        "EPHEMERIS_TYPE": 0,
        "CLASSIFICATION_TYPE": "U",
        "NORAD_CAT_ID": 55316,
        "ELEMENT_SET_NO": 999,
        "REV_AT_EPOCH": 3751,
        "BSTAR": 0.000012182,
        "MEAN_MOTION_DOT": 5.2e-7,
        "MEAN_MOTION_DDOT": 0
    },
    {
        "OBJECT_NAME": "STARLINK-5265",
        "OBJECT_ID": "2023-010BA",
        "EPOCH": "2023-09-14T02:27:15.839424",
        "MEAN_MOTION": 14.99306515,
        "ECCENTRICITY": 0.0002783,
        "INCLINATION": 69.9992,
        "RA_OF_ASC_NODE": 132.8635,
        "ARG_OF_PERICENTER": 261.3931,
        "MEAN_ANOMALY": 98.6914,
        "EPHEMERIS_TYPE": 0,
        "CLASSIFICATION_TYPE": "U",
        "NORAD_CAT_ID": 55317,
        "ELEMENT_SET_NO": 999,
        "REV_AT_EPOCH": 3751,
        "BSTAR": -0.000017433,
        "MEAN_MOTION_DOT": -0.00000307,
        "MEAN_MOTION_DDOT": 0
    },
    {
        "OBJECT_NAME": "STARLINK-5180",
        "OBJECT_ID": "2023-010BB",
        "EPOCH": "2023-09-14T02:15:37.994400",
        "MEAN_MOTION": 14.98337969,
        "ECCENTRICITY": 0.000267,
        "INCLINATION": 69.9989,
        "RA_OF_ASC_NODE": 132.8095,
        "ARG_OF_PERICENTER": 268.5783,
        "MEAN_ANOMALY": 91.5071,
        "EPHEMERIS_TYPE": 0,
        "CLASSIFICATION_TYPE": "U",
        "NORAD_CAT_ID": 55318,
        "ELEMENT_SET_NO": 999,
        "REV_AT_EPOCH": 3750,
        "BSTAR": 0.000014512,
        "MEAN_MOTION_DOT": 8e-7,
        "MEAN_MOTION_DDOT": 0
    },
    {
        "OBJECT_NAME": "STARLINK-5196",
        "OBJECT_ID": "2023-010BC",
        "EPOCH": "2023-09-14T02:09:37.439424",
        "MEAN_MOTION": 14.983378,
        "ECCENTRICITY": 0.0002967,
        "INCLINATION": 69.9986,
        "RA_OF_ASC_NODE": 132.7957,
        "ARG_OF_PERICENTER": 268.303,
        "MEAN_ANOMALY": 91.7789,
        "EPHEMERIS_TYPE": 0,
        "CLASSIFICATION_TYPE": "U",
        "NORAD_CAT_ID": 55319,
        "ELEMENT_SET_NO": 999,
        "REV_AT_EPOCH": 3750,
        "BSTAR": 0.0000059307,
        "MEAN_MOTION_DOT": -2.2e-7,
        "MEAN_MOTION_DDOT": 0
    },
    {
        "OBJECT_NAME": "STARLINK-5492",
        "OBJECT_ID": "2023-013A",
        "EPOCH": "2023-09-14T06:14:25.905984",
        "MEAN_MOTION": 15.02540112,
        "ECCENTRICITY": 0.0001263,
        "INCLINATION": 43.0037,
        "RA_OF_ASC_NODE": 191.4632,
        "ARG_OF_PERICENTER": 264.58,
        "MEAN_ANOMALY": 95.4899,
        "EPHEMERIS_TYPE": 0,
        "CLASSIFICATION_TYPE": "U",
        "NORAD_CAT_ID": 55331,
        "ELEMENT_SET_NO": 999,
        "REV_AT_EPOCH": 3563,
        "BSTAR": -0.00002486,
        "MEAN_MOTION_DOT": -0.00000539,
        "MEAN_MOTION_DDOT": 0
    },
    {
        "OBJECT_NAME": "STARLINK-5491",
        "OBJECT_ID": "2023-013B",
        "EPOCH": "2023-09-14T02:34:33.541824",
        "MEAN_MOTION": 15.02562024,
        "ECCENTRICITY": 0.0000968,
        "INCLINATION": 43.0009,
        "RA_OF_ASC_NODE": 179.0184,
        "ARG_OF_PERICENTER": 268.8045,
        "MEAN_ANOMALY": 91.2686,
        "EPHEMERIS_TYPE": 0,
        "CLASSIFICATION_TYPE": "U",
        "NORAD_CAT_ID": 55332,
        "ELEMENT_SET_NO": 999,
        "REV_AT_EPOCH": 3576,
        "BSTAR": -0.00020219,
        "MEAN_MOTION_DOT": -0.00002936,
        "MEAN_MOTION_DDOT": 0
    },
    {
        "OBJECT_NAME": "STARLINK-5493",
        "OBJECT_ID": "2023-013C",
        "EPOCH": "2023-09-14T07:42:09.015552",
        "MEAN_MOTION": 15.02552477,
        "ECCENTRICITY": 0.0001107,
        "INCLINATION": 43.0041,
        "RA_OF_ASC_NODE": 191.0587,
        "ARG_OF_PERICENTER": 258.6606,
        "MEAN_ANOMALY": 101.4112,
        "EPHEMERIS_TYPE": 0,
        "CLASSIFICATION_TYPE": "U",
        "NORAD_CAT_ID": 55333,
        "ELEMENT_SET_NO": 999,
        "REV_AT_EPOCH": 3564,
        "BSTAR": 0.00011003,
        "MEAN_MOTION_DOT": 0.00001284,
        "MEAN_MOTION_DDOT": 0
    },
    {
        "OBJECT_NAME": "STARLINK-5652",
        "OBJECT_ID": "2023-013D",
        "EPOCH": "2023-09-14T04:55:34.761216",
        "MEAN_MOTION": 15.0173645,
        "ECCENTRICITY": 0.0001133,
        "INCLINATION": 43.0035,
        "RA_OF_ASC_NODE": 188.4395,
        "ARG_OF_PERICENTER": 267.9608,
        "MEAN_ANOMALY": 92.1104,
        "EPHEMERIS_TYPE": 0,
        "CLASSIFICATION_TYPE": "U",
        "NORAD_CAT_ID": 55334,
        "ELEMENT_SET_NO": 999,
        "REV_AT_EPOCH": 3566,
        "BSTAR": 0.000044334,
        "MEAN_MOTION_DOT": 0.00000384,
        "MEAN_MOTION_DDOT": 0
    },
    {
        "OBJECT_NAME": "STARLINK-5660",
        "OBJECT_ID": "2023-013E",
        "EPOCH": "2023-09-14T06:01:37.746048",
        "MEAN_MOTION": 15.02550914,
        "ECCENTRICITY": 0.0001146,
        "INCLINATION": 43.0034,
        "RA_OF_ASC_NODE": 191.3965,
        "ARG_OF_PERICENTER": 262.1919,
        "MEAN_ANOMALY": 97.8793,
        "EPHEMERIS_TYPE": 0,
        "CLASSIFICATION_TYPE": "U",
        "NORAD_CAT_ID": 55335,
        "ELEMENT_SET_NO": 999,
        "REV_AT_EPOCH": 3563,
        "BSTAR": 0.0000042987,
        "MEAN_MOTION_DOT": -0.00000146,
        "MEAN_MOTION_DDOT": 0
    },
    {
        "OBJECT_NAME": "STARLINK-5655",
        "OBJECT_ID": "2023-013F",
        "EPOCH": "2023-09-14T01:47:52.982592",
        "MEAN_MOTION": 15.01734124,
        "ECCENTRICITY": 0.0001264,
        "INCLINATION": 43.0034,
        "RA_OF_ASC_NODE": 178.7027,
        "ARG_OF_PERICENTER": 271.13,
        "MEAN_ANOMALY": 88.9397,
        "EPHEMERIS_TYPE": 0,
        "CLASSIFICATION_TYPE": "U",
        "NORAD_CAT_ID": 55336,
        "ELEMENT_SET_NO": 999,
        "REV_AT_EPOCH": 3576,
        "BSTAR": 0.0004427,
        "MEAN_MOTION_DOT": 0.00005657,
        "MEAN_MOTION_DDOT": 0
    },
    {
        "OBJECT_NAME": "STARLINK-5667",
        "OBJECT_ID": "2023-013G",
        "EPOCH": "2023-09-14T00:46:02.461152",
        "MEAN_MOTION": 15.02547996,
        "ECCENTRICITY": 0.0001206,
        "INCLINATION": 43.003,
        "RA_OF_ASC_NODE": 179.2719,
        "ARG_OF_PERICENTER": 246.3525,
        "MEAN_ANOMALY": 113.7191,
        "EPHEMERIS_TYPE": 0,
        "CLASSIFICATION_TYPE": "U",
        "NORAD_CAT_ID": 55337,
        "ELEMENT_SET_NO": 999,
        "REV_AT_EPOCH": 3575,
        "BSTAR": 0.00012131,
        "MEAN_MOTION_DOT": 0.00001436,
        "MEAN_MOTION_DDOT": 0
    },
    {
        "OBJECT_NAME": "STARLINK-5658",
        "OBJECT_ID": "2023-013H",
        "EPOCH": "2023-09-14T05:58:26.526432",
        "MEAN_MOTION": 15.02543666,
        "ECCENTRICITY": 0.0001317,
        "INCLINATION": 43.0031,
        "RA_OF_ASC_NODE": 191.3778,
        "ARG_OF_PERICENTER": 257.2607,
        "MEAN_ANOMALY": 102.8088,
        "EPHEMERIS_TYPE": 0,
        "CLASSIFICATION_TYPE": "U",
        "NORAD_CAT_ID": 55338,
        "ELEMENT_SET_NO": 999,
        "REV_AT_EPOCH": 3563,
        "BSTAR": 0.000011225,
        "MEAN_MOTION_DOT": -5.2e-7,
        "MEAN_MOTION_DDOT": 0
    },
    {
        "OBJECT_NAME": "STARLINK-5671",
        "OBJECT_ID": "2023-013J",
        "EPOCH": "2023-09-14T05:50:27.177504",
        "MEAN_MOTION": 15.0254351,
        "ECCENTRICITY": 0.0001154,
        "INCLINATION": 43.0041,
        "RA_OF_ASC_NODE": 191.3379,
        "ARG_OF_PERICENTER": 263.7178,
        "MEAN_ANOMALY": 96.3533,
        "EPHEMERIS_TYPE": 0,
        "CLASSIFICATION_TYPE": "U",
        "NORAD_CAT_ID": 55339,
        "ELEMENT_SET_NO": 999,
        "REV_AT_EPOCH": 3563,
        "BSTAR": 0.000022253,
        "MEAN_MOTION_DOT": 9.7e-7,
        "MEAN_MOTION_DDOT": 0
    },
    {
        "OBJECT_NAME": "STARLINK-5675",
        "OBJECT_ID": "2023-013K",
        "EPOCH": "2023-09-14T07:22:58.658304",
        "MEAN_MOTION": 15.02548763,
        "ECCENTRICITY": 0.0001176,
        "INCLINATION": 43.0043,
        "RA_OF_ASC_NODE": 190.958,
        "ARG_OF_PERICENTER": 265.7101,
        "MEAN_ANOMALY": 94.3607,
        "EPHEMERIS_TYPE": 0,
        "CLASSIFICATION_TYPE": "U",
        "NORAD_CAT_ID": 55340,
        "ELEMENT_SET_NO": 999,
        "REV_AT_EPOCH": 3564,
        "BSTAR": 0.00011709,
        "MEAN_MOTION_DOT": 0.00001379,
        "MEAN_MOTION_DDOT": 0
    },
    {
        "OBJECT_NAME": "STARLINK-5670",
        "OBJECT_ID": "2023-013L",
        "EPOCH": "2023-09-14T01:06:28.285344",
        "MEAN_MOTION": 15.02536764,
        "ECCENTRICITY": 0.0000966,
        "INCLINATION": 42.9998,
        "RA_OF_ASC_NODE": 192.4361,
        "ARG_OF_PERICENTER": 250.7702,
        "MEAN_ANOMALY": 109.3035,
        "EPHEMERIS_TYPE": 0,
        "CLASSIFICATION_TYPE": "U",
        "NORAD_CAT_ID": 55341,
        "ELEMENT_SET_NO": 999,
        "REV_AT_EPOCH": 3560,
        "BSTAR": 0.000009174,
        "MEAN_MOTION_DOT": -8e-7,
        "MEAN_MOTION_DDOT": 0
    },
    {
        "OBJECT_NAME": "STARLINK-5657",
        "OBJECT_ID": "2023-013M",
        "EPOCH": "2023-09-14T00:58:28.758432",
        "MEAN_MOTION": 15.02538898,
        "ECCENTRICITY": 0.0001148,
        "INCLINATION": 43.0031,
        "RA_OF_ASC_NODE": 192.3972,
        "ARG_OF_PERICENTER": 260.3516,
        "MEAN_ANOMALY": 99.7197,
        "EPHEMERIS_TYPE": 0,
        "CLASSIFICATION_TYPE": "U",
        "NORAD_CAT_ID": 55342,
        "ELEMENT_SET_NO": 999,
        "REV_AT_EPOCH": 3560,
        "BSTAR": 0.000045713,
        "MEAN_MOTION_DOT": 0.00000414,
        "MEAN_MOTION_DDOT": 0
    }
]